start=new Date('2021-09-30T00:00:00.000Z').valueOf();
sats=[{"NORAD_CAT_ID":"49161","MEAN_ANOMALY":"339.5375","OBJECT_ID":"2021-082AH","PERIOD":"91.733","LAUNCH_DATE":"2021-09-14","RCS_SIZE":"MEDIUM","COUNTRY_CODE":"US","ARG_OF_PERICENTER":"274.2220","CLASSIFICATION_TYPE":"U","EPHEMERIS_TYPE":"0","BSTAR":"-0.00008587600000","MEAN_MOTION_DDOT":"0.0000000000000","ELEMENT_SET_NO":"999","MEAN_MOTION":"15.69769585","OBJECT_TYPE":"PAYLOAD","GP_ID":"185793445","TIME_SYSTEM":"UTC","REV_AT_EPOCH":"276","INCLINATION":"70.0021","ECCENTRICITY":"0.00035000","DECAY_DATE":null,"SEMIMAJOR_AXIS":"6737.693","PERIAPSIS":"357.200","RA_OF_ASC_NODE":"83.3800","APOAPSIS":"361.916","EPOCH":"2021-09-29T14:00:01.000224","SITE":"AFWTR","CENTER_NAME":"EARTH","TLE_LINE2":"2 49161  70.0021  83.3800 0003500 274.2220 339.5375 15.69769585  2763","FILE":"3134986","OBJECT_NAME":"STARLINK-3080","MEAN_ELEMENT_THEORY":"SGP4","TLE_LINE1":"1 49161U 21082AH  21272.58334491 -.00010460  00000-0 -85876-4 0  9996","REF_FRAME":"TEME","MEAN_MOTION_DOT":"-0.00010460"},{"ARG_OF_PERICENTER":"269.3567","CLASSIFICATION_TYPE":"U","EPHEMERIS_TYPE":"0","BSTAR":"0.00000140970000","ELEMENT_SET_NO":"999","MEAN_MOTION_DDOT":"0.0000000000000","MEAN_ANOMALY":"352.5435","NORAD_CAT_ID":"49162","OBJECT_ID":"2021-082AJ","PERIOD":"91.729","LAUNCH_DATE":"2021-09-14","RCS_SIZE":"LARGE","COUNTRY_CODE":"US","INCLINATION":"70.0022","ECCENTRICITY":"0.00034490","MEAN_MOTION":"15.69840748","OBJECT_TYPE":"PAYLOAD","GP_ID":"185794100","REV_AT_EPOCH":"277","TIME_SYSTEM":"UTC","APOAPSIS":"361.678","EPOCH":"2021-09-29T14:00:01.000224","SITE":"AFWTR","CENTER_NAME":"EARTH","TLE_LINE2":"2 49162  70.0022  83.3696 0003449 269.3567 352.5435 15.69840748  2773","DECAY_DATE":null,"PERIAPSIS":"357.031","SEMIMAJOR_AXIS":"6737.490","RA_OF_ASC_NODE":"83.3696","MEAN_MOTION_DOT":"-0.00000044","FILE":"3134986","OBJECT_NAME":"STARLINK-3082","MEAN_ELEMENT_THEORY":"SGP4","TLE_LINE1":"1 49162U 21082AJ  21272.58334491 -.00000044  00000-0  14097-5 0  9991","REF_FRAME":"TEME"},{"COUNTRY_CODE":"US","RCS_SIZE":"MEDIUM","LAUNCH_DATE":"2021-09-14","PERIOD":"91.734","OBJECT_ID":"2021-082AK","NORAD_CAT_ID":"49163","MEAN_ANOMALY":"346.3153","ELEMENT_SET_NO":"999","MEAN_MOTION_DDOT":"0.0000000000000","BSTAR":"-0.00002467600000","EPHEMERIS_TYPE":"0","CLASSIFICATION_TYPE":"U","ARG_OF_PERICENTER":"273.5523","TIME_SYSTEM":"UTC","REV_AT_EPOCH":"276","GP_ID":"185793882","OBJECT_TYPE":"PAYLOAD","MEAN_MOTION":"15.69748947","ECCENTRICITY":"0.00036340","INCLINATION":"70.0002","RA_OF_ASC_NODE":"83.3651","DECAY_DATE":null,"SEMIMAJOR_AXIS":"6737.752","PERIAPSIS":"357.169","TLE_LINE2":"2 49163  70.0002  83.3651 0003634 273.5523 346.3153 15.69748947  2763","CENTER_NAME":"EARTH","SITE":"AFWTR","EPOCH":"2021-09-29T14:00:01.000224","APOAPSIS":"362.066","REF_FRAME":"TEME","TLE_LINE1":"1 49163U 21082AK  21272.58334491 -.00003157  00000-0 -24676-4 0  9994","FILE":"3134986","OBJECT_NAME":"STARLINK-3088","MEAN_ELEMENT_THEORY":"SGP4","MEAN_MOTION_DOT":"-0.00003157"},{"TLE_LINE1":"1 49164U 21082AL  21272.91668981  .00000654  00000-0  72552-5 0  9990","FILE":"3135142","OBJECT_NAME":"STARLINK-3106","MEAN_ELEMENT_THEORY":"SGP4","REF_FRAME":"TEME","MEAN_MOTION_DOT":"0.00000654","RA_OF_ASC_NODE":"82.4154","DECAY_DATE":null,"PERIAPSIS":"357.287","SEMIMAJOR_AXIS":"6737.758","CENTER_NAME":"EARTH","APOAPSIS":"361.959","EPOCH":"2021-09-29T22:00:01.999584","SITE":"AFWTR","TLE_LINE2":"2 49164  70.0000  82.4154 0003467 275.4252  78.2673 15.69747060  3757","MEAN_MOTION":"15.69747060","OBJECT_TYPE":"PAYLOAD","TIME_SYSTEM":"UTC","REV_AT_EPOCH":"375","GP_ID":"185797556","INCLINATION":"70.0000","ECCENTRICITY":"0.00034670","PERIOD":"91.735","LAUNCH_DATE":"2021-09-14","MEAN_ANOMALY":"78.2673","NORAD_CAT_ID":"49164","OBJECT_ID":"2021-082AL","COUNTRY_CODE":"US","RCS_SIZE":"LARGE","CLASSIFICATION_TYPE":"U","ARG_OF_PERICENTER":"275.4252","BSTAR":"0.00000725520000","MEAN_MOTION_DDOT":"0.0000000000000","ELEMENT_SET_NO":"999","EPHEMERIS_TYPE":"0"},{"REF_FRAME":"TEME","FILE":"3135145","MEAN_ELEMENT_THEORY":"SGP4","OBJECT_NAME":"STARLINK-3052","TLE_LINE1":"1 49165U 21082AM  21272.91668981  .00558653  00000-0  44501-2 0  9998","MEAN_MOTION_DOT":"0.00558653","PERIAPSIS":"358.222","DECAY_DATE":null,"SEMIMAJOR_AXIS":"6738.910","RA_OF_ASC_NODE":"82.4248","TLE_LINE2":"2 49165  70.0002  82.4248 0003789 272.5348  75.0431 15.69344398  3793","APOAPSIS":"363.329","EPOCH":"2021-09-29T22:00:01.999584","SITE":"AFWTR","CENTER_NAME":"EARTH","GP_ID":"185797116","TIME_SYSTEM":"UTC","REV_AT_EPOCH":"379","MEAN_MOTION":"15.69344398","OBJECT_TYPE":"PAYLOAD","ECCENTRICITY":"0.00037890","INCLINATION":"70.0002","RCS_SIZE":"MEDIUM","COUNTRY_CODE":"US","MEAN_ANOMALY":"75.0431","NORAD_CAT_ID":"49165","OBJECT_ID":"2021-082AM","PERIOD":"91.758","LAUNCH_DATE":"2021-09-14","EPHEMERIS_TYPE":"0","BSTAR":"0.00445010000000","ELEMENT_SET_NO":"999","MEAN_MOTION_DDOT":"0.0000000000000","ARG_OF_PERICENTER":"272.5348","CLASSIFICATION_TYPE":"U"},{"RA_OF_ASC_NODE":"82.4254","DECAY_DATE":null,"PERIAPSIS":"357.050","SEMIMAJOR_AXIS":"6737.547","TLE_LINE2":"2 49166  70.0010  82.4254 0003506 273.8320  77.8230 15.69820605  3787","CENTER_NAME":"EARTH","EPOCH":"2021-09-29T22:00:01.999584","SITE":"AFWTR","APOAPSIS":"361.774","REF_FRAME":"TEME","TLE_LINE1":"1 49166U 21082AN  21272.91668981 -.00080347  00000-0 -67571-3 0  9994","MEAN_ELEMENT_THEORY":"SGP4","FILE":"3135431","OBJECT_NAME":"STARLINK-3089","MEAN_MOTION_DOT":"-0.00080347","COUNTRY_CODE":"US","RCS_SIZE":"LARGE","LAUNCH_DATE":"2021-09-14","PERIOD":"91.730","OBJECT_ID":"2021-082AN","MEAN_ANOMALY":"77.8230","NORAD_CAT_ID":"49166","ELEMENT_SET_NO":"999","MEAN_MOTION_DDOT":"0.0000000000000","BSTAR":"-0.00067571000000","EPHEMERIS_TYPE":"0","CLASSIFICATION_TYPE":"U","ARG_OF_PERICENTER":"273.8320","TIME_SYSTEM":"UTC","REV_AT_EPOCH":"378","GP_ID":"185804158","OBJECT_TYPE":"PAYLOAD","MEAN_MOTION":"15.69820605","ECCENTRICITY":"0.00035060","INCLINATION":"70.0010"},{"TLE_LINE2":"2 49167  70.0014  82.4276 0003548 280.9570  68.8188 15.69706385  3799","SITE":"AFWTR","EPOCH":"2021-09-29T22:00:01.999584","APOAPSIS":"362.130","CENTER_NAME":"EARTH","DECAY_DATE":null,"SEMIMAJOR_AXIS":"6737.874","PERIAPSIS":"357.348","RA_OF_ASC_NODE":"82.4276","MEAN_MOTION_DOT":"0.00115611","REF_FRAME":"TEME","OBJECT_NAME":"STARLINK-3054","FILE":"3135159","MEAN_ELEMENT_THEORY":"SGP4","TLE_LINE1":"1 49167U 21082AP  21272.91668981  .00115611  00000-0  95861-3 0  9999","EPHEMERIS_TYPE":"0","ELEMENT_SET_NO":"999","MEAN_MOTION_DDOT":"0.0000000000000","BSTAR":"0.00095861000000","ARG_OF_PERICENTER":"280.9570","CLASSIFICATION_TYPE":"U","RCS_SIZE":"LARGE","COUNTRY_CODE":"US","OBJECT_ID":"2021-082AP","NORAD_CAT_ID":"49167","MEAN_ANOMALY":"68.8188","LAUNCH_DATE":"2021-09-14","PERIOD":"91.737","ECCENTRICITY":"0.00035480","INCLINATION":"70.0014","GP_ID":"185798074","TIME_SYSTEM":"UTC","REV_AT_EPOCH":"379","OBJECT_TYPE":"PAYLOAD","MEAN_MOTION":"15.69706385"},{"RA_OF_ASC_NODE":"82.4147","PERIAPSIS":"357.349","DECAY_DATE":null,"SEMIMAJOR_AXIS":"6737.800","TLE_LINE2":"2 49168  70.0028  82.4147 0003438 276.6950  83.6380 15.69732192  3798","CENTER_NAME":"EARTH","APOAPSIS":"361.982","SITE":"AFWTR","EPOCH":"2021-09-29T22:00:01.999584","REF_FRAME":"TEME","TLE_LINE1":"1 49168U 21082AQ  21272.91668981 -.00047714  00000-0 -40046-3 0  9995","FILE":"3135213","OBJECT_NAME":"STARLINK-3101","MEAN_ELEMENT_THEORY":"SGP4","MEAN_MOTION_DOT":"-0.00047714","COUNTRY_CODE":"US","RCS_SIZE":"LARGE","PERIOD":"91.735","LAUNCH_DATE":"2021-09-14","MEAN_ANOMALY":"83.6380","NORAD_CAT_ID":"49168","OBJECT_ID":"2021-082AQ","BSTAR":"-0.00040046000000","ELEMENT_SET_NO":"999","MEAN_MOTION_DDOT":"0.0000000000000","EPHEMERIS_TYPE":"0","CLASSIFICATION_TYPE":"U","ARG_OF_PERICENTER":"276.6950","TIME_SYSTEM":"UTC","REV_AT_EPOCH":"379","GP_ID":"185799088","MEAN_MOTION":"15.69732192","OBJECT_TYPE":"PAYLOAD","ECCENTRICITY":"0.00034380","INCLINATION":"70.0028"},{"MEAN_MOTION_DOT":"0.00000753","TLE_LINE1":"1 49169U 21082AR  21272.91668981  .00000753  00000-0  80820-5 0  9992","FILE":"3135267","MEAN_ELEMENT_THEORY":"SGP4","OBJECT_NAME":"STARLINK-3046","REF_FRAME":"TEME","CENTER_NAME":"EARTH","SITE":"AFWTR","EPOCH":"2021-09-29T22:00:01.999584","APOAPSIS":"361.968","TLE_LINE2":"2 49169  70.0000  82.4130 0003481 276.0504  79.7687 15.69747022  3792","RA_OF_ASC_NODE":"82.4130","SEMIMAJOR_AXIS":"6737.758","DECAY_DATE":null,"PERIAPSIS":"357.277","INCLINATION":"70.0000","ECCENTRICITY":"0.00034810","OBJECT_TYPE":"PAYLOAD","MEAN_MOTION":"15.69747022","TIME_SYSTEM":"UTC","REV_AT_EPOCH":"379","GP_ID":"185799417","CLASSIFICATION_TYPE":"U","ARG_OF_PERICENTER":"276.0504","ELEMENT_SET_NO":"999","MEAN_MOTION_DDOT":"0.0000000000000","BSTAR":"0.00000808200000","EPHEMERIS_TYPE":"0","LAUNCH_DATE":"2021-09-14","PERIOD":"91.735","OBJECT_ID":"2021-082AR","MEAN_ANOMALY":"79.7687","NORAD_CAT_ID":"49169","COUNTRY_CODE":"US","RCS_SIZE":"LARGE"},{"REF_FRAME":"TEME","TLE_LINE1":"1 49170U 21082AS  21272.91668981 -.00009574  00000-0 -78667-4 0  9991","FILE":"3135250","OBJECT_NAME":"STARLINK-3074","MEAN_ELEMENT_THEORY":"SGP4","MEAN_MOTION_DOT":"-0.00009574","RA_OF_ASC_NODE":"82.4079","DECAY_DATE":null,"SEMIMAJOR_AXIS":"6737.883","PERIAPSIS":"357.516","TLE_LINE2":"2 49170  70.0019  82.4079 0003313 275.6855  91.0343 15.69703102  2587","CENTER_NAME":"EARTH","EPOCH":"2021-09-29T22:00:01.999584","SITE":"AFWTR","APOAPSIS":"361.981","TIME_SYSTEM":"UTC","REV_AT_EPOCH":"258","GP_ID":"185799608","OBJECT_TYPE":"PAYLOAD","MEAN_MOTION":"15.69703102","ECCENTRICITY":"0.00033130","INCLINATION":"70.0019","COUNTRY_CODE":"US","RCS_SIZE":"LARGE","LAUNCH_DATE":"2021-09-14","PERIOD":"91.737","OBJECT_ID":"2021-082AS","NORAD_CAT_ID":"49170","MEAN_ANOMALY":"91.0343","ELEMENT_SET_NO":"999","MEAN_MOTION_DDOT":"0.0000000000000","BSTAR":"-0.00007866700000","EPHEMERIS_TYPE":"0","CLASSIFICATION_TYPE":"U","ARG_OF_PERICENTER":"275.6855"}];
